#dP2024  2 27 12  0  0.00000000      96 __u+U IGS20 EXT  IAC
## 2303 216000.00000000   900.00000000 60367 0.5000000000000
+  119   C06C07C08C09C10C11C12C13C14C16C19C20C21C22C23C24C25
+        C26C27C28C29C30C32C33C34C35C36C37C38C39C40C41C42C43
+        C44C45C46E02E03E04E05E07E08E09E10E11E12E13E14E15E18
+        E19E21E24E25E26E27E30E31E33E34E36G01G02G03G04G05G06
+        G07G08G09G10G11G12G13G14G15G16G17G18G19G20G21G22G23
+        G24G25G26G27G28G29G30G31G32J02J03J04R01R02R03R04R05
+        R07R08R09R11R12R13R14R15R16R17R18R19R20R21R22R24R26
++        11 11 11 11 10 11  9  8 11 11  8  8  9  9 10  9 10
++        11  9  9 11  9 10  8 10 11  7  9  9 11 10  8 10 10
++        11 10 10  8  8  8  9  5  7  7  8  7  8  8  7  8  9
++         8  7  7  8  8  7  7  6  8  7  8  8  8  8  8  7  8
++         7  9  6  8  8  7  7  6  7  6  8  8  9  8 10  8  8
++         8  7  6  8  7  8  7  7  8 10  0  0  8  9  9  9  8
++         9  7  9  8 10  8  9  9  9 12 11  9  7  9  7 10 10
%c M  cc GPS ccc cccc cccc cccc cccc ccccc ccccc ccccc ccccc
%c cc cc ccc ccc cccc cccc cccc cccc ccccc ccccc ccccc ccccc
%f  0.0000000  0.000000000  0.00000000000  0.000000000000000
%f  0.0000000  0.000000000  0.00000000000  0.000000000000000
%i    0    0    0    0      0      0      0      0         0
%i    0    0    0    0      0      0      0      0         0
/* IAC                                ULTRA-RAPID PREDICTION
/* S/V CLOCKS ARE ALIGNED TO GNSS TIME                      
/* G:C1WC2W R:C1PC2P E:C1XC5X C:C2IC6I J:C1CC2S             
/* PCV:IGS20_2290 OL/AL:FES2004  NONE     YN ORB:CoN CLK:CoN
*  2024 02 27 14 15  0.00000000
PC06 -17663.814032  27160.224644 -27096.792798    237.164735
PC07  -8686.235197  40196.968730  -8703.218404   -869.580383
PC08   -432.151107  23849.229958  34813.199518      5.532529
PC09  -9896.536952  26313.482875 -31159.612093   -547.567730
PC10  -2592.871778  41721.403675  -1912.069846     67.645753
PC11 -22571.536592  16358.080127  -1198.342822    432.356904
PC12 -21465.735070   1931.145947 -17691.994314    760.142262
PC13   7481.976117  28191.093890  30723.297300    420.852507
PC14 -11958.012896  14151.447454  20867.315946    284.717495
PC16 -21017.563052  26422.808877 -25186.287718   -364.636271
PC19   6619.161312 -22426.810880 -15221.173179   -923.194715
PC20  14768.780821  -5709.186324 -22965.666612   -203.994482
PC21 -14679.062994 -16134.342306  17440.451442   -961.587925
PC22  -5762.973650 -27266.558932   1713.311484    -94.313193
PC23   7737.137421  18104.437844 -19783.657831   -778.648165
PC24 -25579.242825   -893.417745 -11112.025083    923.143369
PC25 -11808.397309  12636.864671 -21911.149626    336.407424
PC26 -24213.658965 -12620.313524   5650.817104   -255.187828
PC27  16470.811996   6124.040369  21655.297001    277.138991
PC28   1335.434451  18071.490254  21227.887668    211.057474
PC29  16698.300513 -21249.929132  -6946.756446    247.425941
PC30  23430.520922 -10174.487329  11196.468203    -30.610129
PC32  14771.693998  16082.207017 -17346.513718   -574.162199
PC33  -6592.936906  22361.273119  15331.891629   -952.346816
PC34 -23503.148877  11411.338025  -9854.133766    378.498376
PC35  -1975.919474 -18113.595202 -21138.263651    423.779140
PC36  12570.389297 -12101.914841  21794.109503     -0.093881
PC37  23733.875379  13395.753484  -6063.264232   -939.517046
PC38  -9306.833439  21109.771692  35354.899163    139.425443
PC39 -25541.084885  26926.408386 -20162.101208     -7.330587
PC40 -14362.520071  37607.654206 -12057.516192    -58.370231
PC41   5305.188523  27375.261411   -809.150268   -896.967481
PC42 -15257.692204   3809.692814  23099.258619   -450.832770
PC43 -17355.660036  21017.399645   6037.286452     62.064536
PC44 -16704.567182  -5727.062277 -21630.577128    397.200620
PC45  -7897.285501 -18022.374793  19769.429528    -72.667455
PC46  25272.079661    398.004573  11860.797754   -127.276090
PE02   1004.996005  23157.455542 -18432.987463    106.843059
PE03  -8488.848392  27906.399825  -5002.482506    -96.638131
PE04  -6662.459934 -20330.756356  20466.390222   -337.139419
PE05 -18444.554549  19068.369599  13134.448726   4724.031757
PE07  17548.327666   1410.525024 -23788.499037   -106.003923
PE08   6028.687798  20817.375430 -20153.352473   -230.494088
PE09 -17376.227232  -1504.341397  23918.923576   -351.226482
PE10 -23120.453360  -8169.237238 -16584.661053   -605.187893
PE11 -28619.309656  -1757.639450  -7401.284068   3218.402786
PE12 -14811.577846 -12835.988521 -22189.641811   -924.645200
PE13  28393.611446   2140.674482   8065.206975    -20.329433
PE14 -17578.665888  15087.406670 -10860.245993     51.349573
PE15  14206.184101  12983.171259  22494.277661    -88.181962
PE18  14210.448457 -28123.454662    -83.298764    374.638559
PE19  10131.939152 -27656.625974   2937.567726   -534.316161
PE21  14365.010768  -8811.702568  24325.520915   -581.182227
PE24 -22039.671337 -11619.398541 -15985.020387   -621.555474
PE25 -14623.806434   8441.650004 -24314.597293      1.435444
PE26  25375.464154 -10156.368193 -11345.202928    380.986731
PE27  22032.547150  11270.822240  16242.509797   -285.284761
PE30  16406.855553  24601.697191  -1539.587542    -40.198344
PE31 -16618.021377 -24455.043795   1309.844013    -16.981795
PE33   8696.159906 -15994.675755 -23332.557753      8.225473
PE34  -8048.406474  16068.789429  23519.580425    -96.985715
PE36 -25761.017611   9776.842584  10843.080422   -191.799202
PG01 -12284.286533 -12253.799532 -20555.532361    171.355411
PG02  -3099.161772 -14505.243738 -21542.847423   -478.852494
PG03 -11002.269812 -23050.377456  -7655.934104    219.555846
PG04   -932.708814 -22107.484054  14605.880944    302.008972
PG05    892.706112  19766.962638  17499.681541   -163.382630
PG06 -25543.958334   5943.731152   4624.647827    390.268510
PG07 -22222.142864  -7039.250457  13650.852268    -71.876695
PG08   4383.446584 -25062.489275  -6896.307214     14.681777
PG09 -11386.196500 -11420.313339  21014.162410    106.317855
PG10  18551.247200   4019.523021 -18506.375601      1.129997
PG11 -18384.892351  11856.704543  15053.850556   -589.727423
PG12   8727.982350  23822.058949  -8261.289470   -482.070954
PG13 -13470.200123  22747.750828   -164.691739    629.364756
PG14 -19771.476243  -7609.653529 -16111.563834    336.729102
PG15  -1098.890680  25591.480645  -7090.266418    132.069441
PG16   6329.975264 -15904.714511  19848.134132   -353.335186
PG17 -16639.414498   2479.146322 -20169.759468    715.586873
PG18  22827.664219   5988.735091  12380.918502   -564.599422
PG19 -18352.964191  10953.300447 -15716.262303    446.523374
PG20 -10072.530893  11699.993778  21677.238503    385.925279
PG21   2255.571900 -15402.433256 -20895.178278    133.391565
PG22 -16641.139023    -19.958327 -20206.552041     24.422474
PG23  20084.324747  14668.961994  -9563.755415    165.249046
PG24   1236.420329  16026.546732 -21529.982924   -438.393725
PG25  16995.598031  20561.898773    944.239290    489.826945
PG26  14637.860532  -6959.821226  20932.627751    185.656623
PG27  12761.386483 -22505.770909   4597.712111     -7.594645
PG28  25982.653439  -5262.102319   1559.820766   -145.438070
PG29   8892.013252  13757.031971  20833.771204   -606.072426
PG30 -26467.456193    550.418314   3655.921616   -427.019491
PG31  22378.061063  -9883.037350  10616.218915   -227.891421
PG32  17003.330560  -6281.304022 -19137.650201   -613.695362
PJ02 -21390.093467  21625.304047 -24583.323215     -2.375439
PJ03 -30509.474682  27322.438496  15065.135176     -0.226749
PJ04      0.000000      0.000000      0.000000     50.806967
PR01  -7322.259684 -19463.335685  14788.799760     78.277571
PR02 -10703.840154  -2530.656343  23061.068854    -22.523805
PR03  -8657.457186  15988.849013  17970.765474     95.342866
PR04  -2075.527415  25226.769210   3254.440202    225.260215
PR05   5606.138403  21065.965572 -13250.124793    127.578268
PR07   8372.214540 -16691.723172 -17305.168591     76.756779
PR08   1708.021843 -25266.553591  -2844.861889    -74.557241
PR09  22693.468970   7590.401231   8734.071386    172.342413
PR11  -1319.867813 -12833.248804  22013.208731     32.975818
PR12 -18010.795749 -15610.737290   9083.991931     37.211048
PR13 -22801.112049  -9432.956831  -6475.478047    -44.758027
PR14 -13952.360706   3752.940438 -21021.256991     26.127659
PR15   2655.488478  13534.580311 -21444.666851     81.839511
PR16  17951.259684  15495.240796  -9353.241939     23.607867
PR17 -21306.689650  13562.480922   3457.818534     64.631712
PR18 -10554.360761  14835.862595  17909.119867    129.508114
PR19   3896.660036   9648.990584  23289.851235   -267.384823
PR20  20737.881959  -3094.107038  14500.947191   -108.939569
PR21  21372.182617 -13453.300489  -3659.252122    -80.293722
PR22   9790.385655 -14641.996571 -18415.585782    110.167112
PR24 -21003.772911   4105.918021 -13856.164734    -45.615202
PR26   2042.907693 -25132.683998  -3907.468851   -196.300410
EOF
